0 INTELSAT 801
1 24742U 97009A   16010.34172174 -.00000091  00000-0  00000+0 0  9991
2 24742   6.0197  57.2785 0011716 253.0552 119.5757  0.98736518 69003
0 GALAXY 25 (TELSTAR 5)
1 24812U 97026A   16010.95334179 -.00000160  00000-0  00000+0 0  9997
2 24812   0.0298  42.5943 0002983 245.2901  72.0831  1.00271001 68153
0 INTELSAT 802
1 24846U 97031A   16009.86375422 -.00000039 +00000-0 +00000-0 0  9990
2 24846 004.0360 065.4196 0030589 200.7333 251.7902 00.98107799067541
0 INTELSAT 5 (PAS 5)
1 24916U 97046A   16009.46659693 -.00000136  00000-0  00000+0 0  9992
2 24916   2.5200  73.7867 0004542 222.4475 137.1763  1.00271407 67397
0 NSS 5 (INTELSAT 803)
1 24957U 97053A   16010.12222741  .00000113  00000-0  00000+0 0  9994
2 24957   2.8235  72.0383 0003803 224.1548 267.3593  1.00272068 67028
0 GALAXY 8
1 25086U 97078A   16008.41915215 -.00000208 +00000-0 +00000-0 0  9996
2 25086 010.9485 040.2110 0006742 275.8137 104.6314 00.99707376065930
0 INTELSAT 804
1 25110U 97083A   16011.12981564  .00000023  00000-0  00000+0 0  9995
2 25110   9.0066  45.7148 0007374 221.6918 308.3318  1.00393145 66229
0 NSS 806 (INTELSAT 806)
1 25239U 98014A   16011.34079148 -.00000277  00000-0  00000+0 0  9994
2 25239   0.0535  17.2646 0004698 271.6743 256.5045  1.00269804 65456
0 INTELSAT 805
1 25371U 98037A   16010.51904218 -.00000194  00000-0  00000+0 0  9997
2 25371   0.0146  20.3183 0003081 293.0172 275.6313  0.99533168 64353
0 INTELSAT 7 (PAS 7)
1 25473U 98052A   16010.95756471 -.00000142  00000-0  00000+0 0  9994
2 25473   2.1223  76.7574 0003851 183.8683 175.7545  1.00271639 63443
0 INTELSAT 8 (PAS 8)
1 25522U 98065A   16010.85580519 -.00000028  00000-0  00000+0 0  9993
2 25522   0.0107  61.2632 0003196 229.6480 295.9713  1.00271665 62918
0 INTELSAT 6B (PAS 6B)
1 25585U 98075A   16011.13077558 -.00000241  00000-0  00000+0 0  9996
2 25585   6.4360  55.3915 0014790  85.9174 333.0726  0.99154700 62220
0 GALAXY 26 (TELSTAR 6)
1 25626U 99005A   16010.81010220 -.00000265  00000-0  00000+0 0  9999
2 25626   3.7142  79.3360 0002933 149.7358 307.2314  0.98999186 61851
0 GALAXY 27 (TELSTAR 7)
1 25922U 99052A   16009.72334954 -.00000001  00000-0  00000+0 0  9999
2 25922   2.1868  75.7220 0005813 204.2368 155.3264  1.00270728 59672
0 GALAXY 11
1 26038U 99071A   16011.06338911 -.00000154  00000-0  00000+0 0  9995
2 26038   0.0328 137.8310 0005005 218.1934 111.5023  1.00486009 58908
0 GALAXY 10R
1 26056U 00002A   16011.00157793  .00000030  00000-0  00000+0 0  9994
2 26056   6.2442  55.9260 0003124 158.7571 330.0508  0.99634716 58355
0 GALAXY 4R
1 26298U 00020A   16009.24540220 -.00000039  00000-0  00000+0 0  9996
2 26298   7.7267  50.3826 0006230 172.9842 339.6562  0.99841524 57600
0 INTELSAT 9 (PAS 9)
1 26451U 00043A   16011.16427522 -.00000270  00000-0  00000+0 0  9992
2 26451   2.5083  74.0160 0002713 214.0245 198.0762  1.00268882 56646
0 INTELSAT 12 (PAS 12)
1 26590U 00068A   16010.18536241  .00000141  00000-0  00000+0 0  9999
2 26590   0.0422 275.4693 0003009  16.3721 289.0002  1.00271141 55581
0 INTELSAT 1R (PAS 1R)
1 26608U 00072A   16011.09716318 -.00000280  00000-0  00000+0 0  9995
2 26608   0.0238 232.4476 0001123   9.7826 212.8052  1.00269477 55459
0 INTELSAT 10 (PAS 10)
1 26766U 01019A   16009.73065150 +.00000131 +00000-0 +00000-0 0  9996
2 26766 000.4308 087.2164 0001935 201.7671 130.2635 01.00274361007410
0 INTELSAT 901
1 26824U 01024A   16010.38210289 -.00000137  00000-0  00000+0 0  9991
2 26824   0.0214  45.3385 0002518 234.2258 309.3243  1.00271262 53385
0 INTELSAT 902
1 26900U 01039A   16010.98715275  .00000035  00000-0  00000+0 0  9999
2 26900   0.0248  69.9700 0003020 223.4661 233.8681  1.00273163 52565
0 INTELSAT 904
1 27380U 02007A   16010.84965105  .00000052  00000-0  00000+0 0  9991
2 27380   0.0109   3.1018 0003050 292.8787 179.6853  1.00271472 50891
0 INTELSAT 903
1 27403U 02016A   16009.13417546 -.00000232  00000-0  00000+0 0  9999
2 27403   0.0194  51.7953 0003548 242.2472 187.8473  1.00271834 50420
0 INTELSAT 905
1 27438U 02027A   16009.37132447 -.00000179  00000-0  00000+0 0  9999
2 27438   0.0305 290.5697 0002596 334.9110 312.0264  1.00271257 49742
0 GALAXY 3C
1 27445U 02030A   16009.96151417 -.00000146  00000-0  00000+0 0  9998
2 27445   0.0296  26.7216 0001589 318.0638  15.2098  1.00268522 49742
0 INTELSAT 906
1 27513U 02041A   16010.94482605  .00000017  00000-0  00000+0 0  9998
2 27513   0.0210 303.7571 0003333 348.3020 222.1052  1.00273059 48767
0 INTELSAT 907
1 27683U 03007A   16010.77165709 -.00000200  00000-0  00000+0 0  9998
2 27683   0.0221  41.0230 0003276 251.4973  67.4451  1.00270210 47182
0 GALAXY 12
1 27715U 03013B   16011.23939911  .00000061  00000-0  00000+0 0  9991
2 27715   0.0431 214.6762 0001599  50.5808 162.0966  1.00270809 46805
0 GALAXY 23 (TELSTAR 13)
1 27854U 03034A   16011.11749428  .00000015  00000-0  00000+0 0  9996
2 27854   0.0327  70.7410 0003435 237.8464  82.7576  1.00271779 45422
0 HORIZONS 1 (GALAXY 13)
1 27954U 03044A   16009.24185539  .00000054  00000-0  00000+0 0  9999
2 27954   0.0395  75.0081 0002550 199.2397 153.9955  1.00272532 44949
0 INTELSAT 1002
1 28358U 04022A   16011.32554551 -.00000010  00000-0  00000+0 0  9994
2 28358   0.0130  98.2870 0000843 112.6479  15.5449  1.00270521 42429
0 GALAXY 28 (IA 8)
1 28702U 05022A   16010.36235823 -.00000181  00000-0  00000+0 0  9998
2 28702   0.0170  34.5917 0000359 159.6669 316.4478  1.00268120 38618
0 GALAXY 14
1 28790U 05030A   16010.40851758  .00000041  00000-0  00000+0 0  9994
2 28790   0.0240 327.7502 0002183 324.3411 199.3267  1.00270899 38095
0 GALAXY 15
1 28884U 05041A   16010.41123959  .00000082  00000-0  00000+0 0  9991
2 28884   0.0422 294.5806 0002333   8.9012 180.9269  1.00274334 37419
0 GALAXY 16
1 29236U 06023A   16011.50079306 -.00000125  00000-0  00000+0 0  9990
2 29236   0.0138 272.0781 0003300  13.4101 266.2544  1.00268729 35067
